{
  "type": "FeatureCollection",
  "features": [
    {
      "type": "Feature",
      "properties": {
        "norad_id": 31307,
        "name": "GALAXY 17 (G-17)",
        "group": "intelsat",
        "lat": -0.6051892680713339,
        "lon": 67.93376687219117,
        "alt_km": 35809.47881876162,
        "timestamp": "2025-12-25T03:55:55.974773+00:00",
        "meta_object_name": "GALAXY 17 (G-17)",
        "meta_object_id": "2007-016B",
        "meta_epoch": "2025-12-24T14:24:26.054784",
        "meta_mean_motion": 1.00271546,
        "meta_eccentricity": 0.000552,
        "meta_inclination": 2.528,
        "meta_ra_of_asc_node": 82.1452,
        "meta_arg_of_pericenter": 171.8515,
        "meta_mean_anomaly": 330.4926,
        "meta_ephemeris_type": 0,
        "meta_classification_type": "U",
        "meta_norad_cat_id": 31307,
        "meta_element_set_no": 999,
        "meta_rev_at_epoch": 6805,
        "meta_bstar": 0,
        "meta_mean_motion_dot": -1.86e-06,
        "meta_mean_motion_ddot": 0,
        "tle_line1": "1 31307U 07016B   25358.60030156 -.00000186  00000+0  00000+0 0  9996",
        "tle_line2": "2 31307   2.5280  82.1452 0005520 171.8515 330.4926  1.00271546 68057"
      },
      "geometry": {
        "type": "Point",
        "coordinates": [
          67.93376687219117,
          -0.6051892680713339
        ]
      }
    },
    {
      "type": "Feature",
      "properties": {
        "norad_id": 31862,
        "name": "DIRECTV 10",
        "group": "intelsat",
        "lat": -0.0001502619232814721,
        "lon": 50.11879203233844,
        "alt_km": 35786.72392193311,
        "timestamp": "2025-12-25T03:55:55.974784+00:00",
        "meta_object_name": "DIRECTV 10",
        "meta_object_id": "2007-032A",
        "meta_epoch": "2025-12-24T14:19:19.046208",
        "meta_mean_motion": 1.00273609,
        "meta_eccentricity": 2.73e-05,
        "meta_inclination": 0.0207,
        "meta_ra_of_asc_node": 182.1136,
        "meta_arg_of_pericenter": 53.7746,
        "meta_mean_anomaly": 329.5202,
        "meta_ephemeris_type": 0,
        "meta_classification_type": "U",
        "meta_norad_cat_id": 31862,
        "meta_element_set_no": 999,
        "meta_rev_at_epoch": 4384,
        "meta_bstar": 0,
        "meta_mean_motion_dot": -8.2e-07,
        "meta_mean_motion_ddot": 0,
        "tle_line1": "1 31862U 07032A   25358.59674822 -.00000082  00000+0  00000+0 0  9997",
        "tle_line2": "2 31862   0.0207 182.1136 0000273  53.7746 329.5202  1.00273609 43847"
      },
      "geometry": {
        "type": "Point",
        "coordinates": [
          50.11879203233844,
          -0.0001502619232814721
        ]
      }
    },
    {
      "type": "Feature",
      "properties": {
        "norad_id": 32253,
        "name": "INTELSAT 11 (IS-11)",
        "group": "intelsat",
        "lat": -2.7945348501316283,
        "lon": -35.944484492940504,
        "alt_km": 36120.27487922587,
        "timestamp": "2025-12-25T03:55:55.974796+00:00",
        "meta_object_name": "INTELSAT 11 (IS-11)",
        "meta_object_id": "2007-044B",
        "meta_epoch": "2025-12-24T19:32:32.114976",
        "meta_mean_motion": 0.99053048,
        "meta_eccentricity": 0.00086,
        "meta_inclination": 3.1097,
        "meta_ra_of_asc_node": 80.842,
        "meta_arg_of_pericenter": 170.9854,
        "meta_mean_anomaly": 307.5112,
        "meta_ephemeris_type": 0,
        "meta_classification_type": "U",
        "meta_norad_cat_id": 32253,
        "meta_element_set_no": 999,
        "meta_rev_at_epoch": 6672,
        "meta_bstar": 0,
        "meta_mean_motion_dot": -1.8e-06,
        "meta_mean_motion_ddot": 0,
        "tle_line1": "1 32253U 07044B   25358.81426059 -.00000180  00000+0  00000+0 0  9996",
        "tle_line2": "2 32253   3.1097  80.8420 0008600 170.9854 307.5112  0.99053048 66725"
      },
      "geometry": {
        "type": "Point",
        "coordinates": [
          -35.944484492940504,
          -2.7945348501316283
        ]
      }
    },
    {
      "type": "Feature",
      "properties": {
        "norad_id": 32388,
        "name": "HORIZONS-2",
        "group": "intelsat",
        "lat": -0.12049761043233392,
        "lon": 79.12788021081829,
        "alt_km": 35805.59953148894,
        "timestamp": "2025-12-25T03:55:55.974808+00:00",
        "meta_object_name": "HORIZONS-2",
        "meta_object_id": "2007-063B",
        "meta_epoch": "2025-12-24T12:44:58.080192",
        "meta_mean_motion": 1.00269872,
        "meta_eccentricity": 0.000475,
        "meta_inclination": 2.1504,
        "meta_ra_of_asc_node": 82.8335,
        "meta_arg_of_pericenter": 196.2957,
        "meta_mean_anomaly": 291.6227,
        "meta_ephemeris_type": 0,
        "meta_classification_type": "U",
        "meta_norad_cat_id": 32388,
        "meta_element_set_no": 999,
        "meta_rev_at_epoch": 6606,
        "meta_bstar": 0,
        "meta_mean_motion_dot": -2.33e-06,
        "meta_mean_motion_ddot": 0,
        "tle_line1": "1 32388U 07063B   25358.53122778 -.00000233  00000+0  00000+0 0  9995",
        "tle_line2": "2 32388   2.1504  82.8335 0004750 196.2957 291.6227  1.00269872 66064"
      },
      "geometry": {
        "type": "Point",
        "coordinates": [
          79.12788021081829,
          -0.12049761043233392
        ]
      }
    },
    {
      "type": "Feature",
      "properties": {
        "norad_id": 32729,
        "name": "DIRECTV 11",
        "group": "intelsat",
        "lat": -0.006687892358586592,
        "lon": 53.64395106734286,
        "alt_km": 35788.31174731051,
        "timestamp": "2025-12-25T03:55:55.974820+00:00",
        "meta_object_name": "DIRECTV 11",
        "meta_object_id": "2008-013A",
        "meta_epoch": "2025-12-24T05:18:53.057952",
        "meta_mean_motion": 1.00254729,
        "meta_eccentricity": 6.191e-05,
        "meta_inclination": 0.0035,
        "meta_ra_of_asc_node": 229.4392,
        "meta_arg_of_pericenter": 193.9717,
        "meta_mean_anomaly": 10.1076,
        "meta_ephemeris_type": 0,
        "meta_classification_type": "U",
        "meta_norad_cat_id": 32729,
        "meta_element_set_no": 999,
        "meta_rev_at_epoch": 4383,
        "meta_bstar": 0,
        "meta_mean_motion_dot": 0,
        "meta_mean_motion_ddot": 0,
        "tle_line1": "1 32729U 08013A   25358.22144743  .00000000  00000+0  00000+0 0  9993",
        "tle_line2": "2 32729   0.0035 229.4392 0000619 193.9717  10.1076  1.00254729 43830"
      },
      "geometry": {
        "type": "Point",
        "coordinates": [
          53.64395106734286,
          -0.006687892358586592
        ]
      }
    },
    {
      "type": "Feature",
      "properties": {
        "norad_id": 32951,
        "name": "GALAXY 18 (G-18)",
        "group": "intelsat",
        "lat": 0.020300723107983722,
        "lon": 29.93067718295669,
        "alt_km": 35790.545757952255,
        "timestamp": "2025-12-25T03:55:55.974832+00:00",
        "meta_object_name": "GALAXY 18 (G-18)",
        "meta_object_id": "2008-024A",
        "meta_epoch": "2025-12-24T17:38:59.925120",
        "meta_mean_motion": 1.00272034,
        "meta_eccentricity": 0.0003021,
        "meta_inclination": 0.0155,
        "meta_ra_of_asc_node": 316.1096,
        "meta_arg_of_pericenter": 322.9393,
        "meta_mean_anomaly": 316.1996,
        "meta_ephemeris_type": 0,
        "meta_classification_type": "U",
        "meta_norad_cat_id": 32951,
        "meta_element_set_no": 999,
        "meta_rev_at_epoch": 4410,
        "meta_bstar": 0,
        "meta_mean_motion_dot": 4.6e-07,
        "meta_mean_motion_ddot": 0,
        "tle_line1": "1 32951U 08024A   25358.73541580  .00000046  00000+0  00000+0 0  9998",
        "tle_line2": "2 32951   0.0155 316.1096 0003021 322.9393 316.1996  1.00272034 44109"
      },
      "geometry": {
        "type": "Point",
        "coordinates": [
          29.93067718295669,
          0.020300723107983722
        ]
      }
    },
    {
      "type": "Feature",
      "properties": {
        "norad_id": 33153,
        "name": "INTELSAT 25 (IS-25)",
        "group": "intelsat",
        "lat": 1.436670298181662,
        "lon": 121.36103942651795,
        "alt_km": 35803.81121544221,
        "timestamp": "2025-12-25T03:55:55.974844+00:00",
        "meta_object_name": "INTELSAT 25 (IS-25)",
        "meta_object_id": "2008-034A",
        "meta_epoch": "2025-12-24T16:22:07.284864",
        "meta_mean_motion": 1.00272122,
        "meta_eccentricity": 0.0004894,
        "meta_inclination": 2.2566,
        "meta_ra_of_asc_node": 82.5213,
        "meta_arg_of_pericenter": 188.9517,
        "meta_mean_anomaly": 36.0148,
        "meta_ephemeris_type": 0,
        "meta_classification_type": "U",
        "meta_norad_cat_id": 33153,
        "meta_element_set_no": 999,
        "meta_rev_at_epoch": 6394,
        "meta_bstar": 0,
        "meta_mean_motion_dot": -2.04e-06,
        "meta_mean_motion_ddot": 0,
        "tle_line1": "1 33153U 08034A   25358.68202876 -.00000204  00000+0  00000+0 0  9997",
        "tle_line2": "2 33153   2.2566  82.5213 0004894 188.9517  36.0148  1.00272122 63944"
      },
      "geometry": {
        "type": "Point",
        "coordinates": [
          121.36103942651795,
          1.436670298181662
        ]
      }
    }
  ]
}